{"fetched_at":"2026-07-16T17:46:44.456Z","source":"https://celestrak.org/NORAD/elements/gp.php?NAME=JILIN&FORMAT=JSON","constellation":"jilin-1-gaofen","records":[{"OBJECT_NAME":"JILIN-1 GAOFEN 03D51","OBJECT_ID":"2022-155B","EPOCH":"2026-07-16T08:16:26.603040","CLASSIFICATION_TYPE":"U","MEAN_MOTION":15.64952875,"ECCENTRICITY":0.00044678,"INCLINATION":97.6263,"RA_OF_ASC_NODE":344.4606,"ARG_OF_PERICENTER":227.4336,"MEAN_ANOMALY":132.6546,"EPHEMERIS_TYPE":0,"NORAD_CAT_ID":54252,"ELEMENT_SET_NO":999,"REV_AT_EPOCH":20430,"BSTAR":0.00036287529,"MEAN_MOTION_DOT":0.00035498,"MEAN_MOTION_DDOT":0},{"OBJECT_NAME":"JILIN-1 GAOFEN 03D53","OBJECT_ID":"2022-155C","EPOCH":"2026-07-16T07:56:30.967008","CLASSIFICATION_TYPE":"U","MEAN_MOTION":15.5447084,"ECCENTRICITY":0.00049112,"INCLINATION":97.6253,"RA_OF_ASC_NODE":339.6286,"ARG_OF_PERICENTER":246.1496,"MEAN_ANOMALY":113.9243,"EPHEMERIS_TYPE":0,"NORAD_CAT_ID":54253,"ELEMENT_SET_NO":999,"REV_AT_EPOCH":20401,"BSTAR":0.00032611974,"MEAN_MOTION_DOT":0.00021376,"MEAN_MOTION_DDOT":0},{"OBJECT_NAME":"JILIN-1 GAOFEN 03D52","OBJECT_ID":"2022-155E","EPOCH":"2026-07-16T08:02:35.331360","CLASSIFICATION_TYPE":"U","MEAN_MOTION":15.62111235,"ECCENTRICITY":0.00038154,"INCLINATION":97.6237,"RA_OF_ASC_NODE":342.6555,"ARG_OF_PERICENTER":241.8515,"MEAN_ANOMALY":118.2357,"EPHEMERIS_TYPE":0,"NORAD_CAT_ID":54255,"ELEMENT_SET_NO":999,"REV_AT_EPOCH":20425,"BSTAR":0.00035458682,"MEAN_MOTION_DOT":0.00031011,"MEAN_MOTION_DDOT":0},{"OBJECT_NAME":"JILIN-1 GAOFEN 03D50","OBJECT_ID":"2022-167J","EPOCH":"2026-07-16T06:30:54.551808","CLASSIFICATION_TYPE":"U","MEAN_MOTION":15.35074447,"ECCENTRICITY":0.00051218,"INCLINATION":97.6853,"RA_OF_ASC_NODE":6.3185,"ARG_OF_PERICENTER":18.1803,"MEAN_ANOMALY":341.9622,"EPHEMERIS_TYPE":0,"NORAD_CAT_ID":54690,"ELEMENT_SET_NO":999,"REV_AT_EPOCH":19981,"BSTAR":0.00017777112,"MEAN_MOTION_DOT":0.00005965,"MEAN_MOTION_DDOT":0},{"OBJECT_NAME":"JILIN-1 GAOFEN 03D47","OBJECT_ID":"2022-167L","EPOCH":"2026-07-16T06:37:14.550240","CLASSIFICATION_TYPE":"U","MEAN_MOTION":15.34355388,"ECCENTRICITY":0.00077113,"INCLINATION":97.695,"RA_OF_ASC_NODE":8.0612,"ARG_OF_PERICENTER":26.0077,"MEAN_ANOMALY":334.1551,"EPHEMERIS_TYPE":0,"NORAD_CAT_ID":54692,"ELEMENT_SET_NO":999,"REV_AT_EPOCH":19980,"BSTAR":0.00016572097,"MEAN_MOTION_DOT":0.00005431,"MEAN_MOTION_DDOT":0},{"OBJECT_NAME":"JILIN-1 GAOFEN 03D49","OBJECT_ID":"2022-167N","EPOCH":"2026-07-16T06:56:00.879648","CLASSIFICATION_TYPE":"U","MEAN_MOTION":15.38056634,"ECCENTRICITY":0.00059733,"INCLINATION":97.6827,"RA_OF_ASC_NODE":8.7363,"ARG_OF_PERICENTER":46.0439,"MEAN_ANOMALY":314.1297,"EPHEMERIS_TYPE":0,"NORAD_CAT_ID":54694,"ELEMENT_SET_NO":999,"REV_AT_EPOCH":19996,"BSTAR":0.00017817321,"MEAN_MOTION_DOT":0.00006586,"MEAN_MOTION_DDOT":0},{"OBJECT_NAME":"JILIN-1 GAOFEN 03D48","OBJECT_ID":"2022-167P","EPOCH":"2026-07-16T06:19:25.836672","CLASSIFICATION_TYPE":"U","MEAN_MOTION":15.35806267,"ECCENTRICITY":0.00063559,"INCLINATION":97.6899,"RA_OF_ASC_NODE":8.0329,"ARG_OF_PERICENTER":26.7728,"MEAN_ANOMALY":333.3842,"EPHEMERIS_TYPE":0,"NORAD_CAT_ID":54695,"ELEMENT_SET_NO":999,"REV_AT_EPOCH":19985,"BSTAR":0.0001807233,"MEAN_MOTION_DOT":0.00006212,"MEAN_MOTION_DDOT":0},{"OBJECT_NAME":"JILIN GAOFEN OBJECT A","OBJECT_ID":"2026-080A","EPOCH":"2026-07-15T19:07:28.761024","CLASSIFICATION_TYPE":"U","MEAN_MOTION":15.09203524,"ECCENTRICITY":0.00112093,"INCLINATION":97.6617,"RA_OF_ASC_NODE":272.2751,"ARG_OF_PERICENTER":333.2917,"MEAN_ANOMALY":26.7733,"EPHEMERIS_TYPE":0,"NORAD_CAT_ID":68691,"ELEMENT_SET_NO":999,"REV_AT_EPOCH":1397,"BSTAR":0.00015440087,"MEAN_MOTION_DOT":0.00002392,"MEAN_MOTION_DDOT":0},{"OBJECT_NAME":"JILIN GAOFEN OBJECT B","OBJECT_ID":"2026-080B","EPOCH":"2026-07-16T05:50:11.733504","CLASSIFICATION_TYPE":"U","MEAN_MOTION":15.08904984,"ECCENTRICITY":0.00157123,"INCLINATION":97.6587,"RA_OF_ASC_NODE":272.7337,"ARG_OF_PERICENTER":309.5869,"MEAN_ANOMALY":50.3971,"EPHEMERIS_TYPE":0,"NORAD_CAT_ID":68692,"ELEMENT_SET_NO":999,"REV_AT_EPOCH":1404,"BSTAR":0.00014023099,"MEAN_MOTION_DOT":0.00002151,"MEAN_MOTION_DDOT":0},{"OBJECT_NAME":"JILIN GAOFEN OBJECT C","OBJECT_ID":"2026-080C","EPOCH":"2026-07-15T19:05:49.707744","CLASSIFICATION_TYPE":"U","MEAN_MOTION":15.08902045,"ECCENTRICITY":0.0013842,"INCLINATION":97.6608,"RA_OF_ASC_NODE":272.2598,"ARG_OF_PERICENTER":316.4089,"MEAN_ANOMALY":43.6044,"EPHEMERIS_TYPE":0,"NORAD_CAT_ID":68693,"ELEMENT_SET_NO":999,"REV_AT_EPOCH":1397,"BSTAR":0.00014166,"MEAN_MOTION_DOT":0.00002173,"MEAN_MOTION_DDOT":0},{"OBJECT_NAME":"JILIN GAOFEN OBJECT D","OBJECT_ID":"2026-080D","EPOCH":"2026-07-16T05:51:19.893600","CLASSIFICATION_TYPE":"U","MEAN_MOTION":15.08964137,"ECCENTRICITY":0.00164164,"INCLINATION":97.6651,"RA_OF_ASC_NODE":272.8093,"ARG_OF_PERICENTER":321.488,"MEAN_ANOMALY":38.5176,"EPHEMERIS_TYPE":0,"NORAD_CAT_ID":68694,"ELEMENT_SET_NO":999,"REV_AT_EPOCH":1402,"BSTAR":0.00013922859,"MEAN_MOTION_DOT":0.00002139,"MEAN_MOTION_DDOT":0},{"OBJECT_NAME":"JILIN GAOFEN OBJECT E","OBJECT_ID":"2026-080E","EPOCH":"2026-07-16T07:00:29.716704","CLASSIFICATION_TYPE":"U","MEAN_MOTION":15.08925399,"ECCENTRICITY":0.00138013,"INCLINATION":97.6633,"RA_OF_ASC_NODE":272.8773,"ARG_OF_PERICENTER":331.7685,"MEAN_ANOMALY":28.2794,"EPHEMERIS_TYPE":0,"NORAD_CAT_ID":68695,"ELEMENT_SET_NO":999,"REV_AT_EPOCH":1401,"BSTAR":0.00018175446,"MEAN_MOTION_DOT":0.00002808,"MEAN_MOTION_DDOT":0},{"OBJECT_NAME":"JILIN GAOFEN OBJECT F","OBJECT_ID":"2026-080F","EPOCH":"2026-07-16T06:59:06.149760","CLASSIFICATION_TYPE":"U","MEAN_MOTION":15.08909273,"ECCENTRICITY":0.00124735,"INCLINATION":97.6605,"RA_OF_ASC_NODE":272.8443,"ARG_OF_PERICENTER":334.6221,"MEAN_ANOMALY":25.4394,"EPHEMERIS_TYPE":0,"NORAD_CAT_ID":68696,"ELEMENT_SET_NO":999,"REV_AT_EPOCH":1401,"BSTAR":0.00017638254,"MEAN_MOTION_DOT":0.00002721,"MEAN_MOTION_DDOT":0},{"OBJECT_NAME":"JILIN GAOFEN OBJECT G","OBJECT_ID":"2026-080G","EPOCH":"2026-07-16T06:39:03.930048","CLASSIFICATION_TYPE":"U","MEAN_MOTION":15.0890296,"ECCENTRICITY":0.00146001,"INCLINATION":97.6654,"RA_OF_ASC_NODE":272.9153,"ARG_OF_PERICENTER":331.3026,"MEAN_ANOMALY":28.7398,"EPHEMERIS_TYPE":0,"NORAD_CAT_ID":68697,"ELEMENT_SET_NO":999,"REV_AT_EPOCH":1401,"BSTAR":0.00015517037,"MEAN_MOTION_DOT":0.00002386,"MEAN_MOTION_DDOT":0},{"OBJECT_NAME":"JILIN GAOFEN OBJECT H","OBJECT_ID":"2026-080H","EPOCH":"2026-07-15T21:03:09.781920","CLASSIFICATION_TYPE":"U","MEAN_MOTION":15.0892678,"ECCENTRICITY":0.0013613,"INCLINATION":97.6673,"RA_OF_ASC_NODE":272.4962,"ARG_OF_PERICENTER":330.3688,"MEAN_ANOMALY":29.6768,"EPHEMERIS_TYPE":0,"NORAD_CAT_ID":68698,"ELEMENT_SET_NO":999,"REV_AT_EPOCH":1395,"BSTAR":0.00016067,"MEAN_MOTION_DOT":0.00002474,"MEAN_MOTION_DDOT":0}]}
