JILIN-1 GAOFEN 03D51    
1 54252U 22155B   26197.34475235  .00035498  00000+0  36288-3 0  9999
2 54252  97.6263 344.4606 0004467 227.4336 132.6546 15.64952875204306
JILIN-1 GAOFEN 03D53    
1 54253U 22155C   26197.33091397  .00021376  00000+0  32612-3 0  9999
2 54253  97.6253 339.6286 0004911 246.1496 113.9243 15.54470840204015
JILIN-1 GAOFEN 03D52    
1 54255U 22155E   26197.33513115  .00031011  00000+0  35459-3 0  9997
2 54255  97.6237 342.6555 0003815 241.8515 118.2357 15.62111235204257
JILIN-1 GAOFEN 03D50    
1 54690U 22167J   26197.27146472  .00005965  00000+0  17777-3 0  9996
2 54690  97.6853   6.3185 0005121  18.1803 341.9622 15.35074447199812
JILIN-1 GAOFEN 03D47    
1 54692U 22167L   26197.27586285  .00005431  00000+0  16572-3 0  9998
2 54692  97.6950   8.0612 0007711  26.0077 334.1551 15.34355388199803
JILIN-1 GAOFEN 03D49    
1 54694U 22167N   26197.28889907  .00006586  00000+0  17817-3 0  9993
2 54694  97.6827   8.7363 0005973  46.0439 314.1297 15.38056634199968
JILIN-1 GAOFEN 03D48    
1 54695U 22167P   26197.26349348  .00006212  00000+0  18072-3 0  9992
2 54695  97.6899   8.0329 0006355  26.7728 333.3842 15.35806267199853
JILIN GAOFEN OBJECT A   
1 68691U 26080A   26196.79686066  .00002392  00000+0  15440-3 0  9990
2 68691  97.6617 272.2751 0011209 333.2917  26.7733 15.09203524 13974
JILIN GAOFEN OBJECT B   
1 68692U 26080B   26197.24319136  .00002151  00000+0  14023-3 0  9992
2 68692  97.6587 272.7337 0015712 309.5869  50.3971 15.08904984 14044
JILIN GAOFEN OBJECT C   
1 68693U 26080C   26196.79571421  .00002173  00000+0  14166-3 0  9991
2 68693  97.6608 272.2598 0013842 316.4089  43.6044 15.08902045 13979
JILIN GAOFEN OBJECT D   
1 68694U 26080D   26197.24398025  .00002139  00000+0  13923-3 0  9992
2 68694  97.6651 272.8093 0016416 321.4880  38.5176 15.08964137 14025
JILIN GAOFEN OBJECT E   
1 68695U 26080E   26197.29201061  .00002808  00000+0  18175-3 0  9998
2 68695  97.6633 272.8773 0013801 331.7685  28.2794 15.08925399 14011
JILIN GAOFEN OBJECT F   
1 68696U 26080F   26197.29104340  .00002721  00000+0  17638-3 0  9998
2 68696  97.6605 272.8443 0012473 334.6221  25.4394 15.08909273 14015
JILIN GAOFEN OBJECT G   
1 68697U 26080G   26197.27712882  .00002386  00000+0  15517-3 0  9994
2 68697  97.6654 272.9153 0014600 331.3026  28.7398 15.08902960 14016
JILIN GAOFEN OBJECT H   
1 68698U 26080H   26196.87719655  .00002474  00000+0  16067-3 0  9994
2 68698  97.6673 272.4962 0013613 330.3688  29.6768 15.08926780 13956
